{
  "type": "FeatureCollection",
  "features": [
    {
      "type": "Feature",
      "properties": {
        "NAZWA": "Sopot",
        "name": "Sopot",
        "osm_id": 1553144,
        "osm_type": "relation"
      },
      "geometry": {
        "type": "Polygon",
        "coordinates": [
          [
            [
              18.5044838,
              54.4450037
            ],
            [
              18.5046871,
              54.4447388
            ],
            [
              18.5049072,
              54.4442994
            ],
            [
              18.5049792,
              54.4441575
            ],
            [
              18.5051818,
              54.4438676
            ],
            [
              18.5054911,
              54.4434735
            ],
            [
              18.5056826,
              54.4432917
            ],
            [
              18.5059726,
              54.4431188
            ],
            [
              18.5063327,
              54.442961
            ],
            [
              18.5073035,
              54.4426714
            ],
            [
              18.5075543,
              54.4425973
            ],
            [
              18.5081953,
              54.4423678
            ],
            [
              18.5092741,
              54.442102
            ],
            [
              18.5109116,
              54.4417161
            ],
            [
              18.5119126,
              54.4414379
            ],
            [
              18.5130976,
              54.4410942
            ],
            [
              18.5134032,
              54.4410194
            ],
            [
              18.5136681,
              54.4409847
            ],
            [
              18.51366,
              54.4409283
            ],
            [
              18.5131859,
              54.440407
            ],
            [
              18.5128523,
              54.4400672
            ],
            [
              18.5127321,
              54.4399939
            ],
            [
              18.5121334,
              54.4397064
            ],
            [
              18.5119211,
              54.4395782
            ],
            [
              18.5117813,
              54.4394365
            ],
            [
              18.5115019,
              54.4390525
            ],
            [
              18.5113499,
              54.4389478
            ],
            [
              18.5105763,
              54.4385931
            ],
            [
              18.5095872,
              54.4380617
            ],
            [
              18.5084071,
              54.4374209
            ],
            [
              18.508262,
              54.4373094
            ],
            [
              18.5081721,
              54.437164
            ],
            [
              18.5081347,
              54.4370273
            ],
            [
              18.508105,
              54.4367365
            ],
            [
              18.5080275,
              54.434241
            ],
            [
              18.5079999,
              54.4337755
            ],
            [
              18.5079901,
              54.4331258
            ],
            [
              18.5079759,
              54.4330446
            ],
            [
              18.5078875,
              54.432899
            ],
            [
              18.5073211,
              54.4322777
            ],
            [
              18.506786,
              54.4316566
            ],
            [
              18.506632,
              54.4314075
            ],
            [
              18.5066937,
              54.4313285
            ],
            [
              18.5067918,
              54.4312633
            ],
            [
              18.5072805,
              54.4311881
            ],
            [
              18.5076594,
              54.4310821
            ],
            [
              18.508457,
              54.4308015
            ],
            [
              18.5091215,
              54.4307234
            ],
            [
              18.5094142,
              54.4306427
            ],
            [
              18.5095793,
              54.4305489
            ],
            [
              18.5096789,
              54.4304589
            ],
            [
              18.5097124,
              54.4303464
            ],
            [
              18.5096754,
              54.4300157
            ],
            [
              18.5096602,
              54.4296555
            ],
            [
              18.5096409,
              54.4293886
            ],
            [
              18.5096894,
              54.4292489
            ],
            [
              18.5097889,
              54.4290912
            ],
            [
              18.5100222,
              54.428922
            ],
            [
              18.5103722,
              54.4287818
            ],
            [
              18.5105126,
              54.4287089
            ],
            [
              18.5106587,
              54.4285645
            ],
            [
              18.5108987,
              54.4283203
            ],
            [
              18.5110297,
              54.4282121
            ],
            [
              18.5111476,
              54.4280664
            ],
            [
              18.5111507,
              54.4278849
            ],
            [
              18.5110971,
              54.427534
            ],
            [
              18.511024,
              54.4274663
            ],
            [
              18.510938,
              54.4272759
            ],
            [
              18.5108877,
              54.4271546
            ],
            [
              18.5108526,
              54.4266834
            ],
            [
              18.5108437,
              54.4265659
            ],
            [
              18.5107577,
              54.426136
            ],
            [
              18.5106844,
              54.425807
            ],
            [
              18.5106448,
              54.4256524
            ],
            [
              18.5105741,
              54.4255668
            ],
            [
              18.510481,
              54.4252736
            ],
            [
              18.5103832,
              54.4249116
            ],
            [
              18.5102599,
              54.4248391
            ],
            [
              18.5100241,
              54.4248341
            ],
            [
              18.5098834,
              54.4247659
            ],
            [
              18.5097087,
              54.4245504
            ],
            [
              18.509502,
              54.4243002
            ],
            [
              18.5094498,
              54.4238768
            ],
            [
              18.5093736,
              54.4237864
            ],
            [
              18.5092107,
              54.4237402
            ],
            [
              18.5088416,
              54.42368
            ],
            [
              18.508644,
              54.4235947
            ],
            [
              18.5083255,
              54.4234028
            ],
            [
              18.5078091,
              54.4230893
            ],
            [
              18.5076809,
              54.4229086
            ],
            [
              18.5075443,
              54.42275
            ],
            [
              18.5081917,
              54.4226499
            ],
            [
              18.5099169,
              54.4224774
            ],
            [
              18.5120207,
              54.4222689
            ],
            [
              18.5142979,
              54.4219282
            ],
            [
              18.5155558,
              54.4214978
            ],
            [
              18.5160927,
              54.4213782
            ],
            [
              18.5170238,
              54.4211775
            ],
            [
              18.518169,
              54.421218
            ],
            [
              18.5194271,
              54.4213378
            ],
            [
              18.5205181,
              54.4215527
            ],
            [
              18.5207665,
              54.4218062
            ],
            [
              18.5223109,
              54.4222122
            ],
            [
              18.5244023,
              54.4226894
            ],
            [
              18.5264268,
              54.4230182
            ],
            [
              18.5272012,
              54.4231483
            ],
            [
              18.5278782,
              54.4232421
            ],
            [
              18.5291395,
              54.4231929
            ],
            [
              18.5299267,
              54.4231102
            ],
            [
              18.5310076,
              54.4230015
            ],
            [
              18.5319334,
              54.4229856
            ],
            [
              18.5325409,
              54.4228463
            ],
            [
              18.5332922,
              54.4226774
            ],
            [
              18.534366,
              54.4224053
            ],
            [
              18.5349437,
              54.4222839
            ],
            [
              18.5353941,
              54.4221919
            ],
            [
              18.5358212,
              54.4221061
            ],
            [
              18.5367075,
              54.4219361
            ],
            [
              18.537321,
              54.4218165
            ],
            [
              18.5377722,
              54.4220416
            ],
            [
              18.5388535,
              54.4219594
            ],
            [
              18.5391014,
              54.4217225
            ],
            [
              18.5394488,
              54.4217894
            ],
            [
              18.5402683,
              54.4216526
            ],
            [
              18.5408764,
              54.4216227
            ],
            [
              18.5412542,
              54.4216571
            ],
            [
              18.5417331,
              54.4217685
            ],
            [
              18.5422753,
              54.4218563
            ],
            [
              18.542757,
              54.4219651
            ],
            [
              18.5433677,
              54.4221341
            ],
            [
              18.5443628,
              54.4225653
            ],
            [
              18.5449141,
              54.4225455
            ],
            [
              18.5455251,
              54.4224529
            ],
            [
              18.5463005,
              54.4224407
            ],
            [
              18.5467362,
              54.4224717
            ],
            [
              18.5473285,
              54.4225139
            ],
            [
              18.5478702,
              54.4224888
            ],
            [
              18.5484158,
              54.4223708
            ],
            [
              18.5486341,
              54.4223232
            ],
            [
              18.5488236,
              54.4222793
            ],
            [
              18.5492301,
              54.4221833
            ],
            [
              18.5494184,
              54.4221376
            ],
            [
              18.549846,
              54.4220444
            ],
            [
              18.5507965,
              54.421837
            ],
            [
              18.5513817,
              54.4217132
            ],
            [
              18.5520272,
              54.4215764
            ],
            [
              18.5524584,
              54.4215025
            ],
            [
              18.552866,
              54.4214079
            ],
            [
              18.5534703,
              54.4211955
            ],
            [
              18.5540204,
              54.4209208
            ],
            [
              18.5546434,
              54.4206645
            ],
            [
              18.5554259,
              54.4203915
            ],
            [
              18.555953,
              54.4201597
            ],
            [
              18.5566369,
              54.419943
            ],
            [
              18.5574301,
              54.419733
            ],
            [
              18.5576988,
              54.4201806
            ],
            [
              18.5577955,
              54.4203417
            ],
            [
              18.557799,
              54.4203475
            ],
            [
              18.5578728,
              54.4204657
            ],
            [
              18.5580379,
              54.4207301
            ],
            [
              18.5581967,
              54.4209844
            ],
            [
              18.5585554,
              54.4216625
            ],
            [
              18.5590866,
              54.4226027
            ],
            [
              18.5591739,
              54.4227628
            ],
            [
              18.5592585,
              54.4229315
            ],
            [
              18.5593085,
              54.4230311
            ],
            [
              18.5597039,
              54.4229996
            ],
            [
              18.5597037,
              54.422954
            ],
            [
              18.5599082,
              54.4228821
            ],
            [
              18.5603164,
              54.4227401
            ],
            [
              18.5609546,
              54.4225196
            ],
            [
              18.561098,
              54.4224788
            ],
            [
              18.5611514,
              54.4224673
            ],
            [
              18.5612753,
              54.4224421
            ],
            [
              18.5613948,
              54.4224203
            ],
            [
              18.5615074,
              54.4224048
            ],
            [
              18.5616139,
              54.4223953
            ],
            [
              18.5616653,
              54.4223908
            ],
            [
              18.5618584,
              54.4223718
            ],
            [
              18.5625442,
              54.4230616
            ],
            [
              18.563273,
              54.4237911
            ],
            [
              18.5635316,
              54.4238076
            ],
            [
              18.5636193,
              54.423813
            ],
            [
              18.5638617,
              54.4238305
            ],
            [
              18.5641136,
              54.4238471
            ],
            [
              18.5643042,
              54.4238518
            ],
            [
              18.5653503,
              54.4238756
            ],
            [
              18.5661238,
              54.4238811
            ],
            [
              18.5671365,
              54.4237861
            ],
            [
              18.567572,
              54.423762
            ],
            [
              18.5675998,
              54.4237606
            ],
            [
              18.5705606,
              54.4235239
            ],
            [
              18.5715859,
              54.4237182
            ],
            [
              18.5725199,
              54.423895
            ],
            [
              18.5727952,
              54.4239462
            ],
            [
              18.5759727,
              54.4247979
            ],
            [
              18.5767992,
              54.42502
            ],
            [
              18.576951,
              54.4250502
            ],
            [
              18.5774703,
              54.4250045
            ],
            [
              18.5783645,
              54.4243265
            ],
            [
              18.5784591,
              54.4242548
            ],
            [
              18.579037,
              54.4242194
            ],
            [
              18.579647,
              54.4241869
            ],
            [
              18.579756,
              54.4241811
            ],
            [
              18.5800637,
              54.4242305
            ],
            [
              18.5799939,
              54.4246055
            ],
            [
              18.579869,
              54.425349
            ],
            [
              18.5797776,
              54.4258233
            ],
            [
              18.5793976,
              54.4257951
            ],
            [
              18.578997,
              54.4257571
            ],
            [
              18.5795391,
              54.4262594
            ],
            [
              18.5812202,
              54.4267335
            ],
            [
              18.5820618,
              54.4269689
            ],
            [
              18.5824816,
              54.4265592
            ],
            [
              18.5829204,
              54.4261301
            ],
            [
              18.5830447,
              54.4260084
            ],
            [
              18.5833927,
              54.4256676
            ],
            [
              18.5839309,
              54.4259521
            ],
            [
              18.5840107,
              54.4259928
            ],
            [
              18.5842132,
              54.426091
            ],
            [
              18.5852842,
              54.4267011
            ],
            [
              18.5855654,
              54.426866
            ],
            [
              18.5856676,
              54.4269264
            ],
            [
              18.5858007,
              54.4270045
            ],
            [
              18.5863535,
              54.4273251
            ],
            [
              18.587389,
              54.4279313
            ],
            [
              18.5878304,
              54.4282
            ],
            [
              18.5885299,
              54.428621
            ],
            [
              18.5889381,
              54.4288656
            ],
            [
              18.588957,
              54.4288766
            ],
            [
              18.5890826,
              54.4289547
            ],
            [
              18.589288,
              54.4290795
            ],
            [
              18.5899009,
              54.4294484
            ],
            [
              18.5904781,
              54.4297952
            ],
            [
              18.5906268,
              54.4298842
            ],
            [
              18.5906869,
              54.4299211
            ],
            [
              18.5911604,
              54.430186
            ],
            [
              18.5914159,
              54.4303298
            ],
            [
              18.591592,
              54.43038
            ],
            [
              18.591675,
              54.4304052
            ],
            [
              18.6165397,
              54.4375859
            ],
            [
              18.6164018,
              54.4478452
            ],
            [
              18.6161527,
              54.4663528
            ],
            [
              18.5723835,
              54.464376
            ],
            [
              18.5625317,
              54.4639307
            ],
            [
              18.5621678,
              54.4639129
            ],
            [
              18.5614052,
              54.4639734
            ],
            [
              18.5612556,
              54.4639653
            ],
            [
              18.5611415,
              54.4639591
            ],
            [
              18.5609891,
              54.4639734
            ],
            [
              18.560952,
              54.4639777
            ],
            [
              18.5609403,
              54.4639583
            ],
            [
              18.5608803,
              54.4639448
            ],
            [
              18.560687,
              54.4638369
            ],
            [
              18.5606154,
              54.4637963
            ],
            [
              18.5605907,
              54.4637615
            ],
            [
              18.5604837,
              54.4637265
            ],
            [
              18.5604165,
              54.4636904
            ],
            [
              18.5602447,
              54.4637058
            ],
            [
              18.5601664,
              54.46368
            ],
            [
              18.5600449,
              54.4636494
            ],
            [
              18.559971,
              54.463631
            ],
            [
              18.5598535,
              54.4636041
            ],
            [
              18.5597632,
              54.463604
            ],
            [
              18.5596742,
              54.4636287
            ],
            [
              18.559594,
              54.4636742
            ],
            [
              18.5594031,
              54.4636961
            ],
            [
              18.5592473,
              54.4636874
            ],
            [
              18.5591325,
              54.463665
            ],
            [
              18.5589904,
              54.463683
            ],
            [
              18.5588114,
              54.4636905
            ],
            [
              18.5587156,
              54.4636622
            ],
            [
              18.5586524,
              54.4636206
            ],
            [
              18.5586603,
              54.4635678
            ],
            [
              18.5586766,
              54.4635159
            ],
            [
              18.5586974,
              54.4634467
            ],
            [
              18.5586745,
              54.4634166
            ],
            [
              18.5585682,
              54.4633776
            ],
            [
              18.5584596,
              54.4633912
            ],
            [
              18.558433,
              54.4633944
            ],
            [
              18.5583386,
              54.4633823
            ],
            [
              18.5582291,
              54.4634342
            ],
            [
              18.5581978,
              54.4634459
            ],
            [
              18.5581354,
              54.4634739
            ],
            [
              18.5581081,
              54.4634502
            ],
            [
              18.5580803,
              54.4634217
            ],
            [
              18.5581365,
              54.4633887
            ],
            [
              18.5579781,
              54.4633766
            ],
            [
              18.5579393,
              54.4633932
            ],
            [
              18.5578756,
              54.4634447
            ],
            [
              18.5578806,
              54.4634682
            ],
            [
              18.5579107,
              54.4634926
            ],
            [
              18.5578491,
              54.4634942
            ],
            [
              18.5577851,
              54.4634806
            ],
            [
              18.5577254,
              54.4634996
            ],
            [
              18.5576937,
              54.4634858
            ],
            [
              18.5576226,
              54.4634331
            ],
            [
              18.5575235,
              54.4634318
            ],
            [
              18.557443,
              54.4633088
            ],
            [
              18.5574284,
              54.463296
            ],
            [
              18.5573119,
              54.463224
            ],
            [
              18.5573246,
              54.4631223
            ],
            [
              18.5572608,
              54.4631063
            ],
            [
              18.5571969,
              54.4630803
            ],
            [
              18.5571811,
              54.4630451
            ],
            [
              18.557127,
              54.4630275
            ],
            [
              18.5570839,
              54.4630272
            ],
            [
              18.5570324,
              54.4630505
            ],
            [
              18.5569666,
              54.4630542
            ],
            [
              18.5569513,
              54.4630319
            ],
            [
              18.5569042,
              54.4630026
            ],
            [
              18.5567935,
              54.4629963
            ],
            [
              18.55671,
              54.4629683
            ],
            [
              18.5566102,
              54.4629345
            ],
            [
              18.5565353,
              54.462931
            ],
            [
              18.5565523,
              54.4629399
            ],
            [
              18.556474,
              54.4629592
            ],
            [
              18.556443,
              54.4629652
            ],
            [
              18.5562427,
              54.4629522
            ],
            [
              18.5563171,
              54.4628871
            ],
            [
              18.5561805,
              54.4629347
            ],
            [
              18.5561285,
              54.4628829
            ],
            [
              18.5561479,
              54.4628429
            ],
            [
              18.5561562,
              54.4628273
            ],
            [
              18.5561339,
              54.4627912
            ],
            [
              18.5561659,
              54.4627491
            ],
            [
              18.5561606,
              54.4627222
            ],
            [
              18.5558465,
              54.4626017
            ],
            [
              18.5557456,
              54.4625727
            ],
            [
              18.5556394,
              54.4625431
            ],
            [
              18.5555427,
              54.462538
            ],
            [
              18.5554369,
              54.4624773
            ],
            [
              18.5553295,
              54.4623382
            ],
            [
              18.5553247,
              54.462235
            ],
            [
              18.555282,
              54.4622204
            ],
            [
              18.5550074,
              54.4622133
            ],
            [
              18.5549381,
              54.4621987
            ],
            [
              18.5548362,
              54.4622015
            ],
            [
              18.5547558,
              54.4622298
            ],
            [
              18.5546725,
              54.4622215
            ],
            [
              18.5545924,
              54.4622326
            ],
            [
              18.5545266,
              54.4622273
            ],
            [
              18.5544911,
              54.4622612
            ],
            [
              18.5544047,
              54.4622584
            ],
            [
              18.5543549,
              54.4622331
            ],
            [
              18.5543043,
              54.4622359
            ],
            [
              18.5542505,
              54.4622095
            ],
            [
              18.5542024,
              54.4622053
            ],
            [
              18.5541138,
              54.4621994
            ],
            [
              18.5540373,
              54.4622307
            ],
            [
              18.5539788,
              54.4622352
            ],
            [
              18.5539229,
              54.4622542
            ],
            [
              18.5538301,
              54.4622672
            ],
            [
              18.5538029,
              54.4622675
            ],
            [
              18.553691,
              54.4622629
            ],
            [
              18.5534641,
              54.4622407
            ],
            [
              18.553173,
              54.4622656
            ],
            [
              18.5529768,
              54.4623065
            ],
            [
              18.5526695,
              54.4623458
            ],
            [
              18.5526323,
              54.462281
            ],
            [
              18.552625,
              54.4622536
            ],
            [
              18.5526349,
              54.4622314
            ],
            [
              18.5524399,
              54.4621791
            ],
            [
              18.5520405,
              54.4620541
            ],
            [
              18.5513721,
              54.461964
            ],
            [
              18.5513413,
              54.4619777
            ],
            [
              18.5513007,
              54.4619574
            ],
            [
              18.5512841,
              54.4619216
            ],
            [
              18.5512037,
              54.4619201
            ],
            [
              18.5511686,
              54.4618958
            ],
            [
              18.5507123,
              54.4618389
            ],
            [
              18.5504809,
              54.4618258
            ],
            [
              18.5503674,
              54.4618111
            ],
            [
              18.5503076,
              54.4616137
            ],
            [
              18.5487149,
              54.4613602
            ],
            [
              18.5486937,
              54.4613034
            ],
            [
              18.548547,
              54.4612124
            ],
            [
              18.5480078,
              54.4613854
            ],
            [
              18.5479008,
              54.4614575
            ],
            [
              18.5474637,
              54.4614559
            ],
            [
              18.5474639,
              54.4613722
            ],
            [
              18.5469573,
              54.4611882
            ],
            [
              18.5462805,
              54.4609374
            ],
            [
              18.5458959,
              54.4607987
            ],
            [
              18.5456949,
              54.4607519
            ],
            [
              18.5455793,
              54.460734
            ],
            [
              18.5454268,
              54.4604879
            ],
            [
              18.5452174,
              54.4604022
            ],
            [
              18.5445332,
              54.4604496
            ],
            [
              18.5440546,
              54.460443
            ],
            [
              18.5435883,
              54.4604359
            ],
            [
              18.5435535,
              54.4596817
            ],
            [
              18.5435177,
              54.4594733
            ],
            [
              18.5434253,
              54.4583892
            ],
            [
              18.5433209,
              54.4570557
            ],
            [
              18.5412819,
              54.4577013
            ],
            [
              18.5396068,
              54.4579259
            ],
            [
              18.5391066,
              54.4582079
            ],
            [
              18.5379242,
              54.4585566
            ],
            [
              18.5370474,
              54.458811
            ],
            [
              18.5353213,
              54.4590512
            ],
            [
              18.5326759,
              54.458892
            ],
            [
              18.5314695,
              54.4583389
            ],
            [
              18.529197,
              54.4580354
            ],
            [
              18.5266252,
              54.4576897
            ],
            [
              18.5250097,
              54.4574735
            ],
            [
              18.5232172,
              54.4575426
            ],
            [
              18.5225779,
              54.457527
            ],
            [
              18.5210998,
              54.4576725
            ],
            [
              18.5200182,
              54.457851
            ],
            [
              18.5199806,
              54.457881
            ],
            [
              18.5199449,
              54.4578618
            ],
            [
              18.5209526,
              54.4562971
            ],
            [
              18.5210979,
              54.4561926
            ],
            [
              18.5211527,
              54.456115
            ],
            [
              18.5204581,
              54.455822
            ],
            [
              18.5200132,
              54.4556038
            ],
            [
              18.519363,
              54.4553559
            ],
            [
              18.5191534,
              54.4552158
            ],
            [
              18.5190895,
              54.4551279
            ],
            [
              18.5189165,
              54.4546968
            ],
            [
              18.518844,
              54.4545219
            ],
            [
              18.5187762,
              54.4542932
            ],
            [
              18.5187939,
              54.4539658
            ],
            [
              18.5188978,
              54.4533483
            ],
            [
              18.5189772,
              54.4528169
            ],
            [
              18.5190382,
              54.452439
            ],
            [
              18.5191249,
              54.4521143
            ],
            [
              18.519291,
              54.4518406
            ],
            [
              18.519214,
              54.4518154
            ],
            [
              18.5186565,
              54.4515493
            ],
            [
              18.517374,
              54.450952
            ],
            [
              18.5143313,
              54.4495399
            ],
            [
              18.5118489,
              54.4483843
            ],
            [
              18.5072125,
              54.4462496
            ],
            [
              18.5071069,
              54.446252
            ],
            [
              18.5071023,
              54.4462003
            ],
            [
              18.5044838,
              54.4450037
            ]
          ]
        ]
      }
    }
  ]
}